#dP2023  2 16 12  0  0.00000000      96 __u+U ITR00 EXT  IAC
## 2249 388800.00000000   900.00000000 59991 0.5000000000000
+  120   C06C07C08C09C10C11C12C13C14C16C19C20C21C22C23C24C25
+        C26C27C28C29C30C32C33C34C35C36C37C38C39C40C41C42C43
+        C44C45C46E01E02E03E04E05E07E08E09E10E11E12E13E14E15
+        E18E19E21E24E25E26E27E30E31E33E34E36G01G02G03G04G05
+        G06G07G08G09G10G11G12G13G14G15G16G17G18G19G20G21G22
+        G23G24G25G26G27G28G29G30G31G32J02J03J04R01R02R03R04
+        R05R07R08R09R11R12R13R14R15R16R17R18R19R20R21R22R24
+        R25  0  0  0  0  0  0  0  0  0  0  0  0  0  0  0  0
++         0  0  0  0  0  8  9  0  8  0  8  9  8  8  8  9  9
++         8  9  9  8 10  9 10  8 10  7  8  0  0  0 10  9  8
++         9  9  7  6  7  6  7  8  6  7  7  6  9  7  8  7  6
++         8  6  7  7  7  8  7  7  7  7  7  6  7  7  7  8  7
++         7  6  7  7  7  7  7  6  7  9  6  7  7  8  7  6  6
++         7  8  6  6  6  7  7  6  6  8  9  8  9  8  8  7  7
++         8  6  8  8  7  8  8  9  9  7  9  7  9  9  7  7  6
++         7  0  0  0  0  0  0  0  0  0  0  0  0  0  0  0  0
%c M  cc GPS ccc cccc cccc cccc cccc ccccc ccccc ccccc ccccc
%c cc cc ccc ccc cccc cccc cccc cccc ccccc ccccc ccccc ccccc
%f  0.0000000  0.000000000  0.00000000000  0.000000000000000
%f  0.0000000  0.000000000  0.00000000000  0.000000000000000
%i    0    0    0    0      0      0      0      0         0
%i    0    0    0    0      0      0      0      0         0
/* IAC                                ULTRA-RAPID PREDICTION
/* S/V CLOCKS ARE ALIGNED TO GNSS TIME                      
/* G:C1WC2W R:C1PC2P E:C1XC5X C:C2IC6I J:C1CC2S             
/* PCV:IGS20_2247 OL/AL:FES2004  NONE     YN ORB:CoN CLK:CoN
*  2023 02 17  6 30  0.00000000
PC06 -13584.372771  39750.258397    715.617657   -191.458355
PC07  -3361.709301  30337.943537  29183.187649    102.052944
PC08 -16017.362905  22135.086525 -32162.755908    525.551647
PC09  -8247.420383  39847.719167  10289.429668    708.522143
PC10   3759.066839  33187.951641  26294.127572      9.549662
PC11   7720.762687 -26530.495233  -3787.267085   -116.007454
PC12  15173.034106 -13917.102125 -18797.103732    457.403653
PC13  -9555.483472  23628.158535 -33485.852590    209.739424
PC14   1624.192705 -17692.048403  21527.717681    489.694846
PC16 -14278.387673  39484.356065   -757.795910    160.293079
PC19   8117.069883  21030.017494 -16431.973495   -894.573988
PC20  -9250.163758  12720.166779 -23035.290132    719.925437
PC21  22392.872573   3989.798222  16201.793925   -910.649994
PC22  21620.970302  17663.581111    -33.342596   -628.697883
PC23 -16637.492058  -9404.502722 -20341.849509   -878.359569
PC24  21364.944607 -15301.632555  -9367.130616   -400.299384
PC25   1759.165562 -17526.198601 -21652.785607     73.415957
PC26  26503.643621  -5656.718589   6557.106913    -79.927034
PC27 -16371.716137   4498.703664  22124.770923     98.013307
PC28 -11712.516590 -15094.139143  20345.573489     71.417043
PC29    362.193137  27308.377076  -5720.842441     82.198384
PC30 -11585.431752  22230.099029  12228.006943      1.129951
PC32 -22435.812891  -3885.025542 -16108.682070   -619.919889
PC33  -8087.961668 -20977.118785  16531.599604   -872.806440
PC34  11040.168580 -23086.173015 -11174.640475    107.956208
PC35  11784.697274  15795.289043 -19750.444025    679.128709
PC36  -2973.350663  17629.297732  21443.276781   -619.773495
PC37 -26486.367141   4010.480558  -7864.637329   -819.303840
PC38 -23795.563351  23346.723580 -25854.611587     59.350401
PC39 -16310.417423  37810.496903  -8445.984100     -1.844341
PC40  -6358.478737  25614.479872  32924.900722    -15.322942
PC41 -21378.232041 -17922.157181    731.118377   -621.820436
PC42  10501.231358 -11816.436901  23044.657602   -832.371937
PC43    244.631611 -27481.577395   4918.399165      7.590327
PC44  16350.120937  -4899.097952 -22095.426346     17.973802
PC45  16931.775423   9049.719130  20234.685750    -61.477964
PC46 -20228.065399  15887.052284  10867.986414    -33.988623
PE01 -11304.053159  14165.309150  23400.511939   -600.521720
PE02  10780.668936 -14359.550405 -23536.538986     21.290950
PE03   3729.546018 -24231.198887  16580.576341   -650.839762
PE04  10207.209280  27779.531739    422.431422    -60.070043
PE05  15801.155145  -6330.304214  24220.424579    -94.565177
PE07 -18444.699688 -15127.043016 -17516.304264    -23.540626
PE08 -10157.510520 -27797.856946   -258.075892    -37.422021
PE09  18356.566977  15313.399259  17465.585921   -839.030654
PE10   9534.579487  13319.900369 -24656.139933   -512.991099
PE11  17295.747255   3420.384810 -23784.988885    917.868994
PE12   1110.633269  20270.600558 -21530.332900   -425.342074
PE13 -16693.931606  -4236.098227  24078.680154     -0.321943
PE14 -11586.676045  15184.485032  17567.200028    144.524512
PE15   -770.451303 -20448.668186  21401.225405     -1.693008
PE18  18918.531691  -5566.076738 -23529.987621   -381.316321
PE19  -5631.037179  22464.215239 -18422.845480  -3214.592378
PE21 -26306.861741   4103.158992  12938.144860   -512.639104
PE24  27180.190118   9720.134913   6461.760279  -1118.725133
PE25  26453.579135  -3898.055492 -12683.436726   -599.562799
PE26 -22707.847305  14829.928900  11860.867951     20.801230
PE27 -27579.854753  -9139.415033  -5708.806286   -514.292524
PE30 -11844.973872 -17062.776196 -21112.320727  -1249.169914
PE31  12582.816218  16867.870341  20812.132648   -516.263073
PE33 -15494.859612  24461.673754  -6098.565145   -451.768920
PE34  15342.470693 -24525.699879   6263.864176    -30.527337
PE36  22658.269103 -14285.436106 -12607.078809    -13.654039
PG01 -12421.745857  21388.608843  -9497.154595    211.636519
PG02   8049.441494 -22807.078615  11866.649150   -620.298961
PG03  -5509.950983  13949.210774 -22036.802292   -362.113186
PG04  -1746.238335  24092.020871 -10909.310023    -25.752055
PG05  20633.983611  -6664.838017  15248.593610   -116.226901
PG06  16654.469223   2271.013708 -20520.619506    573.294252
PG07    730.386792  18786.354615  19000.407611    239.489465
PG08  -9258.086552  15475.711143  19307.004712   -108.893762
PG09   7418.704880  25467.771022   -742.397496   -216.720049
PG10 -22601.395277 -11496.328576   8597.601884    -25.075005
PG11  21874.991440  -9400.482692 -11727.419758   -106.435787
PG12   8314.344782 -13146.342313 -21798.914021   -341.329207
PG13  13554.016112  -7894.695279  21229.197480    477.395283
PG14  20453.154956  13507.917324  10395.686577    -25.202569
PG15   7415.676614 -17015.158855  18450.567307     14.162319
PG16 -22746.447052   2157.037283  13629.374855   -519.710790
PG17  12609.364152  19871.154132 -11780.834010    700.545555
PG18  -3317.932211 -16470.417659  20537.620066   -144.060833
PG19  15230.081954  10405.677853 -19439.436945    278.790667
PG20  25853.462576  -1850.659083   5302.295360    450.204858
PG21 -16816.785885  19965.999207    734.683680    154.036939
PG22 -15583.516299  -6634.448785 -20065.996999    428.673415
PG23 -13345.276698 -15045.680238  17426.435069      6.504898
PG24  13557.138142 -22177.298457  -4572.113544    -77.155243
PG25  -3078.048231 -16178.200551 -21200.218675    420.780537
PG26 -26402.590237  -4209.312224    692.082597    241.549690
PG27 -14501.313391   3564.474248  21734.466669    100.459800
PG28 -15884.792998  -4130.794989 -20912.868609     15.653442
PG29  -2986.722195 -26109.465893  -3590.479647   -586.561244
PG30  12194.356655  10119.856588  21417.306306   -530.031867
PG31 -18523.011178   -899.626352 -19344.627122   -209.464393
PG32 -15155.305069 -16860.413591 -13835.167532   -398.631855
PJ02 -29930.407810  21476.003163  25527.142446     -0.931856
PJ03 -31226.418109  26600.564044  14934.107091      0.284924
PJ04 -23535.866983  22113.426572 -21994.863757     94.255008
PR01  10899.585663  20204.734042 -11126.390474     23.182674
PR02  18150.842970  16187.463241   7628.073870    -23.275185
PR03  14780.199602   2322.075552  20690.739013     72.637177
PR04   3191.780566 -12270.545358  22168.041714    176.109058
PR05 -10002.057318 -20437.173638  11572.073030    107.884593
PR07 -14427.875059  -1753.720931 -20933.834950     50.078846
PR08  -3057.658972  12451.230195 -21984.781221    -69.507178
PR09 -19936.666252  -3650.251927 -15426.927231    104.542984
PR11 -16646.212929  10988.340548  15897.699518     -5.790557
PR12   2947.175894  10668.543766  22998.493259     25.053723
PR13  18675.202690   4479.025120  16762.699315    -32.128051
PR14  24963.182704  -5223.405535   -766.855481     24.333512
PR15  15803.398665 -11106.566066 -16647.956710     91.004327
PR16  -2606.761140 -10575.647207 -23063.264311     11.371246
PR17  13038.426448  -9793.278780 -19592.557937    605.584650
PR18  11205.935253 -22114.976987  -6111.497174     67.206015
PR19   4985.542450 -23226.378070   9301.018923   -222.217299
PR20  -6914.398212  -9597.804633  22617.353991    -87.825527
PR21 -13180.827592  11387.088977  18645.869550   -373.966118
PR22 -11835.962841  21959.500784   5307.883918     71.312606
PR24   7966.471066   8864.505928 -22533.686229    147.454944
PR25 -13711.429544   8791.114000  19643.427027     55.303864
EOF
